{"spkid": "20483432", "covariance": {"labels": ["e", "q", "tp", "node", "peri", "i"], "data": [["3.2869321032056E-13", "-4.003670378077062E-13", "5.99376828393166E-11", "1.198021934410222E-11", "1.32387321383602E-11", "5.909423157176986E-12"], ["-4.003670378077062E-13", "4.877365359608446E-13", "-7.248903834977972E-11", "-1.454879700724982E-11", "-1.594429928617412E-11", "-7.187718507972282E-12"], ["5.99376828393166E-11", "-7.248903834977972E-11", "1.583337924592274E-8", "2.680516365346723E-9", "4.483919009596098E-9", "1.166510268365084E-9"], ["1.198021934410222E-11", "-1.454879700724982E-11", "2.680516365346723E-9", "1.037439926061817E-9", "2.264592493199235E-10", "2.042094549318736E-10"], ["1.32387321383602E-11", "-1.594429928617412E-11", "4.483919009596098E-9", "2.264592493199235E-10", "2.045349369206818E-9", "2.870225199020962E-10"], ["5.909423157176986E-12", "-7.187718507972282E-12", "1.166510268365084E-9", "2.042094549318736E-10", "2.870225199020962E-10", "4.961558624563582E-10"]], "elements": [{"label": "e", "units": null, "title": "eccentricity", "value": ".3707474734441337", "sigma": 5.73317721966241e-07, "name": "e"}, {"title": "perihelion distance", "value": ".7645459758596572", "units": "au", "sigma": 6.98381368566519e-07, "name": "q", "label": "q"}, {"label": "tp", "name": "tp", "sigma": 0.000125830756359178, "units": "TDB", "value": "2454330.344409493034", "title": "time of perihelion passage"}, {"sigma": 3.22093142749394e-05, "name": "om", "units": "deg", "title": "longitude of the ascending node", "value": "146.7104081919208", "label": "node"}, {"label": "peri", "name": "w", "sigma": 4.52255389045484e-05, "value": "260.1594836482151", "title": "argument of perihelion", "units": "deg"}, {"label": "i", "sigma": 2.22745563919095e-05, "name": "i", "units": "deg", "title": "inclination", "value": "18.47381868159625"}], "epoch": "2454439.5"}, "elements": [{"sigma": "5.7317E-7", "name": "e", "value": ".370716152855792", "title": "eccentricity", "units": null, "label": "e"}, {"label": "a", "value": "1.215191792839131", "title": "semi-major axis", "units": "au", "name": "a", "sigma": "1.152E-8"}, {"sigma": "6.9839E-7", "name": "q", "units": "au", "title": "perihelion distance", "value": ".7647005664158756", "label": "q"}, {"label": "i", "value": "18.4734226365733", "title": "inclination; angle with respect to x-y ecliptic plane", "units": "deg", "sigma": "2.2278E-5", "name": "i"}, {"label": "node", "title": "longitude of the ascending node", "value": "146.6153856981439", "units": "deg", "sigma": "3.2166E-5", "name": "om"}, {"label": "peri", "sigma": "4.5157E-5", "name": "w", "units": "deg", "title": "argument of perihelion", "value": "260.2832938413728"}, {"label": "M", "name": "ma", "sigma": ".00013906", "title": "mean anomaly", "value": "15.3097135406824", "units": "deg"}, {"label": "tp", "name": "tp", "sigma": ".00018878", "title": "time of perihelion passage", "value": "2461179.692005116182", "units": "TDB"}, {"units": "d", "title": "sidereal orbital period", "value": "489.289243607921", "sigma": "6.9578E-6", "name": "per", "label": "period"}, {"label": "n", "sigma": "1.0463E-8", "name": "n", "units": "deg/d", "value": ".7357611161558183", "title": "mean motion"}, {"units": "au", "value": "1.665683019262386", "title": "aphelion distance", "sigma": "1.5791E-8", "name": "ad", "label": "Q"}], "epoch": "2461200.5"}